STARLINK-2437           
1 48102U 21027L   24022.36014904  .00011644  00000+0  79855-3 0  9996
2 48102  53.0544  41.1852 0001468  87.7836 272.3321 15.06433942155139
STARLINK-2438           
1 48103U 21027M   24022.28254957  .00046284  00000+0  14457-2 0  9996
2 48103  53.0566   9.8629 0004160  25.2948 334.8256 15.32744494155979
STARLINK-2439           
1 48104U 21027N   24022.24728772  .00009738  00000+0  67169-3 0  9996
2 48104  53.0542  46.6916 0001455  90.1144 270.0012 15.06403559155454
STARLINK-2440           
1 48105U 21027P   24022.28736375 -.00002418  00000+0 -14356-3 0  9999
2 48105  53.0550 351.5119 0001575  80.4539 279.6628 15.06388056156228
STARLINK-2442           
1 48106U 21027Q   24022.27170903  .00009505  00000+0  65592-3 0  9998
2 48106  53.0547  41.5949 0001261  89.7890 270.3244 15.06411408155528
STARLINK-2443           
1 48107U 21027R   24022.28645384  .00012230  00000+0  83839-3 0  9993
2 48107  53.0547  41.5186 0001583  92.7988 267.3182 15.06403817155523
STARLINK-2444           
1 48108U 21027S   24022.39242183  .00005964  00000+0  41883-3 0  9995
2 48108  53.0543  51.0418 0001680  94.6995 265.4186 15.06407114155001
STARLINK-2445           
1 48109U 21027T   24022.28999572  .00001037  00000+0  13849-4 0  9994
2 48109  53.0521  25.9942 0001292  93.6529 266.4635 15.68844429155744
STARLINK-2447           
1 48110U 21027U   24022.44772006 -.00016054  00000+0 -10624-2 0  9998
2 48110  53.0531  50.7962 0001787 103.8684 256.2504 15.06360507155014
STARLINK-2448           
1 48111U 21027V   24022.24129834  .00007880  00000+0  54725-3 0  9998
2 48111  53.0549  51.6925 0001490  82.8444 277.2714 15.06405477155386
STARLINK-2449           
1 48112U 21027W   24022.49981374  .00028728  00000+0  19381-2 0  9993
2 48112  53.0546  65.7334 0001572  77.5644 282.5521 15.06429373154800
STARLINK-2450           
1 48113U 21027X   24022.36938508  .00009259  00000+0  63948-3 0  9998
2 48113  53.0543  61.1438 0001494  73.8459 286.2694 15.06411055154854
STARLINK-2452           
1 48115U 21027Z   24022.42559971  .00007907  00000+0  54904-3 0  9990
2 48115  53.0563  50.9068 0001668  85.7868 274.3312 15.06407403155007
STARLINK-2454           
1 48116U 21027AA  24022.49838461  .00025105  00000+0  16968-2 0  9999
2 48116  53.0563  60.5616 0001632 129.2330 230.8804 15.06432605154872
STARLINK-2455           
1 48117U 21027AB  24022.27075984  .00001108  00000+0  93285-4 0  9995
2 48117  53.0542  41.5801 0001559  87.9088 272.2079 15.06406388155529
STARLINK-2458           
1 48118U 21027AC  24022.28277164  .00008495  00000+0  58843-3 0  9997
2 48118  53.0548  41.5358 0001460  99.4798 260.6356 15.06403863155524
STARLINK-2459           
1 48119U 21027AD  24022.27813568  .00004405  00000+0  31438-3 0  9999
2 48119  53.0547  41.5464 0001568  73.6540 286.4622 15.06403992155514
