[{"OBJECT_NAME":"STARLINK-2437","OBJECT_ID":"2021-027L","EPOCH":"2024-01-22T08:38:36.877056","MEAN_MOTION":15.06433942,"ECCENTRICITY":0.0001468,"INCLINATION":53.0544,"RA_OF_ASC_NODE":41.1852,"ARG_OF_PERICENTER":87.7836,"MEAN_ANOMALY":272.3321,"EPHEMERIS_TYPE":0,"CLASSIFICATION_TYPE":"U","NORAD_CAT_ID":48102,"ELEMENT_SET_NO":999,"REV_AT_EPOCH":15513,"BSTAR":0.00079855,"MEAN_MOTION_DOT":0.00011644,"MEAN_MOTION_DDOT":0},{"OBJECT_NAME":"STARLINK-2438","OBJECT_ID":"2021-027M","EPOCH":"2024-01-22T06:46:52.282848","MEAN_MOTION":15.32744494,"ECCENTRICITY":0.000416,"INCLINATION":53.0566,"RA_OF_ASC_NODE":9.8629,"ARG_OF_PERICENTER":25.2948,"MEAN_ANOMALY":334.8256,"EPHEMERIS_TYPE":0,"CLASSIFICATION_TYPE":"U","NORAD_CAT_ID":48103,"ELEMENT_SET_NO":999,"REV_AT_EPOCH":15597,"BSTAR":0.0014457,"MEAN_MOTION_DOT":0.00046284,"MEAN_MOTION_DDOT":0},{"OBJECT_NAME":"STARLINK-2439","OBJECT_ID":"2021-027N","EPOCH":"2024-01-22T05:56:05.659008","MEAN_MOTION":15.06403559,"ECCENTRICITY":0.0001455,"INCLINATION":53.0542,"RA_OF_ASC_NODE":46.6916,"ARG_OF_PERICENTER":90.1144,"MEAN_ANOMALY":270.0012,"EPHEMERIS_TYPE":0,"CLASSIFICATION_TYPE":"U","NORAD_CAT_ID":48104,"ELEMENT_SET_NO":999,"REV_AT_EPOCH":15545,"BSTAR":0.00067169,"MEAN_MOTION_DOT":9.738e-5,"MEAN_MOTION_DDOT":0},{"OBJECT_NAME":"STARLINK-2440","OBJECT_ID":"2021-027P","EPOCH":"2024-01-22T06:53:48.228000","MEAN_MOTION":15.06388056,"ECCENTRICITY":0.0001575,"INCLINATION":53.055,"RA_OF_ASC_NODE":351.5119,"ARG_OF_PERICENTER":80.4539,"MEAN_ANOMALY":279.6628,"EPHEMERIS_TYPE":0,"CLASSIFICATION_TYPE":"U","NORAD_CAT_ID":48105,"ELEMENT_SET_NO":999,"REV_AT_EPOCH":15622,"BSTAR":-0.00014356,"MEAN_MOTION_DOT":-2.418e-5,"MEAN_MOTION_DDOT":0},{"OBJECT_NAME":"STARLINK-2442","OBJECT_ID":"2021-027Q","EPOCH":"2024-01-22T06:31:15.660192","MEAN_MOTION":15.06411408,"ECCENTRICITY":0.0001261,"INCLINATION":53.0547,"RA_OF_ASC_NODE":41.5949,"ARG_OF_PERICENTER":89.789,"MEAN_ANOMALY":270.3244,"EPHEMERIS_TYPE":0,"CLASSIFICATION_TYPE":"U","NORAD_CAT_ID":48106,"ELEMENT_SET_NO":999,"REV_AT_EPOCH":15552,"BSTAR":0.00065592,"MEAN_MOTION_DOT":9.505e-5,"MEAN_MOTION_DDOT":0},{"OBJECT_NAME":"STARLINK-2443","OBJECT_ID":"2021-027R","EPOCH":"2024-01-22T06:52:29.611776","MEAN_MOTION":15.06403817,"ECCENTRICITY":0.0001583,"INCLINATION":53.0547,"RA_OF_ASC_NODE":41.5186,"ARG_OF_PERICENTER":92.7988,"MEAN_ANOMALY":267.3182,"EPHEMERIS_TYPE":0,"CLASSIFICATION_TYPE":"U","NORAD_CAT_ID":48107,"ELEMENT_SET_NO":999,"REV_AT_EPOCH":15552,"BSTAR":0.00083839,"MEAN_MOTION_DOT":0.0001223,"MEAN_MOTION_DDOT":0},{"OBJECT_NAME":"STARLINK-2444","OBJECT_ID":"2021-027S","EPOCH":"2024-01-22T09:25:05.246112","MEAN_MOTION":15.06407114,"ECCENTRICITY":0.000168,"INCLINATION":53.0543,"RA_OF_ASC_NODE":51.0418,"ARG_OF_PERICENTER":94.6995,"MEAN_ANOMALY":265.4186,"EPHEMERIS_TYPE":0,"CLASSIFICATION_TYPE":"U","NORAD_CAT_ID":48108,"ELEMENT_SET_NO":999,"REV_AT_EPOCH":15500,"BSTAR":0.00041883,"MEAN_MOTION_DOT":5.964e-5,"MEAN_MOTION_DDOT":0},{"OBJECT_NAME":"STARLINK-2445","OBJECT_ID":"2021-027T","EPOCH":"2024-01-22T06:57:35.630208","MEAN_MOTION":15.68844429,"ECCENTRICITY":0.0001292,"INCLINATION":53.0521,"RA_OF_ASC_NODE":25.9942,"ARG_OF_PERICENTER":93.6529,"MEAN_ANOMALY":266.4635,"EPHEMERIS_TYPE":0,"CLASSIFICATION_TYPE":"U","NORAD_CAT_ID":48109,"ELEMENT_SET_NO":999,"REV_AT_EPOCH":15574,"BSTAR":1.3849e-5,"MEAN_MOTION_DOT":1.037e-5,"MEAN_MOTION_DDOT":0},{"OBJECT_NAME":"STARLINK-2447","OBJECT_ID":"2021-027U","EPOCH":"2024-01-22T10:44:43.013184","MEAN_MOTION":15.06360507,"ECCENTRICITY":0.0001787,"INCLINATION":53.0531,"RA_OF_ASC_NODE":50.7962,"ARG_OF_PERICENTER":103.8684,"MEAN_ANOMALY":256.2504,"EPHEMERIS_TYPE":0,"CLASSIFICATION_TYPE":"U","NORAD_CAT_ID":48110,"ELEMENT_SET_NO":999,"REV_AT_EPOCH":15501,"BSTAR":-0.0010624,"MEAN_MOTION_DOT":-0.00016054,"MEAN_MOTION_DDOT":0},{"OBJECT_NAME":"STARLINK-2448","OBJECT_ID":"2021-027V","EPOCH":"2024-01-22T05:47:28.176576","MEAN_MOTION":15.06405477,"ECCENTRICITY":0.000149,"INCLINATION":53.0549,"RA_OF_ASC_NODE":51.6925,"ARG_OF_PERICENTER":82.8444,"MEAN_ANOMALY":277.2714,"EPHEMERIS_TYPE":0,"CLASSIFICATION_TYPE":"U","NORAD_CAT_ID":48111,"ELEMENT_SET_NO":999,"REV_AT_EPOCH":15538,"BSTAR":0.00054725,"MEAN_MOTION_DOT":7.88e-5,"MEAN_MOTION_DDOT":0},{"OBJECT_NAME":"STARLINK-2449","OBJECT_ID":"2021-027W","EPOCH":"2024-01-22T11:59:43.907136","MEAN_MOTION":15.06429373,"ECCENTRICITY":0.0001572,"INCLINATION":53.0546,"RA_OF_ASC_NODE":65.7334,"ARG_OF_PERICENTER":77.5644,"MEAN_ANOMALY":282.5521,"EPHEMERIS_TYPE":0,"CLASSIFICATION_TYPE":"U","NORAD_CAT_ID":48112,"ELEMENT_SET_NO":999,"REV_AT_EPOCH":15480,"BSTAR":0.0019381,"MEAN_MOTION_DOT":0.00028728,"MEAN_MOTION_DDOT":0},{"OBJECT_NAME":"STARLINK-2450","OBJECT_ID":"2021-027X","EPOCH":"2024-01-22T08:51:54.870912","MEAN_MOTION":15.06411055,"ECCENTRICITY":0.0001494,"INCLINATION":53.0543,"RA_OF_ASC_NODE":61.1438,"ARG_OF_PERICENTER":73.8459,"MEAN_ANOMALY":286.2694,"EPHEMERIS_TYPE":0,"CLASSIFICATION_TYPE":"U","NORAD_CAT_ID":48113,"ELEMENT_SET_NO":999,"REV_AT_EPOCH":15485,"BSTAR":0.00063948,"MEAN_MOTION_DOT":9.259e-5,"MEAN_MOTION_DDOT":0},{"OBJECT_NAME":"STARLINK-2452","OBJECT_ID":"2021-027Z","EPOCH":"2024-01-22T10:12:51.814944","MEAN_MOTION":15.06407403,"ECCENTRICITY":0.0001668,"INCLINATION":53.0563,"RA_OF_ASC_NODE":50.9068,"ARG_OF_PERICENTER":85.7868,"MEAN_ANOMALY":274.3312,"EPHEMERIS_TYPE":0,"CLASSIFICATION_TYPE":"U","NORAD_CAT_ID":48115,"ELEMENT_SET_NO":999,"REV_AT_EPOCH":15500,"BSTAR":0.00054904,"MEAN_MOTION_DOT":7.907e-5,"MEAN_MOTION_DDOT":0},{"OBJECT_NAME":"STARLINK-2454","OBJECT_ID":"2021-027AA","EPOCH":"2024-01-22T11:57:40.430304","MEAN_MOTION":15.06432605,"ECCENTRICITY":0.0001632,"INCLINATION":53.0563,"RA_OF_ASC_NODE":60.5616,"ARG_OF_PERICENTER":129.233,"MEAN_ANOMALY":230.8804,"EPHEMERIS_TYPE":0,"CLASSIFICATION_TYPE":"U","NORAD_CAT_ID":48116,"ELEMENT_SET_NO":999,"REV_AT_EPOCH":15487,"BSTAR":0.0016968,"MEAN_MOTION_DOT":0.00025105,"MEAN_MOTION_DDOT":0},{"OBJECT_NAME":"STARLINK-2455","OBJECT_ID":"2021-027AB","EPOCH":"2024-01-22T06:29:53.650176","MEAN_MOTION":15.06406388,"ECCENTRICITY":0.0001559,"INCLINATION":53.0542,"RA_OF_ASC_NODE":41.5801,"ARG_OF_PERICENTER":87.9088,"MEAN_ANOMALY":272.2079,"EPHEMERIS_TYPE":0,"CLASSIFICATION_TYPE":"U","NORAD_CAT_ID":48117,"ELEMENT_SET_NO":999,"REV_AT_EPOCH":15552,"BSTAR":9.3285e-5,"MEAN_MOTION_DOT":1.108e-5,"MEAN_MOTION_DDOT":0},{"OBJECT_NAME":"STARLINK-2458","OBJECT_ID":"2021-027AC","EPOCH":"2024-01-22T06:47:11.469696","MEAN_MOTION":15.06403863,"ECCENTRICITY":0.000146,"INCLINATION":53.0548,"RA_OF_ASC_NODE":41.5358,"ARG_OF_PERICENTER":99.4798,"MEAN_ANOMALY":260.6356,"EPHEMERIS_TYPE":0,"CLASSIFICATION_TYPE":"U","NORAD_CAT_ID":48118,"ELEMENT_SET_NO":999,"REV_AT_EPOCH":15552,"BSTAR":0.00058843,"MEAN_MOTION_DOT":8.495e-5,"MEAN_MOTION_DDOT":0},{"OBJECT_NAME":"STARLINK-2459","OBJECT_ID":"2021-027AD","EPOCH":"2024-01-22T06:40:30.922752","MEAN_MOTION":15.06403992,"ECCENTRICITY":0.0001568,"INCLINATION":53.0547,"RA_OF_ASC_NODE":41.5464,"ARG_OF_PERICENTER":73.654,"MEAN_ANOMALY":286.4622,"EPHEMERIS_TYPE":0,"CLASSIFICATION_TYPE":"U","NORAD_CAT_ID":48119,"ELEMENT_SET_NO":999,"REV_AT_EPOCH":15551,"BSTAR":0.00031438,"MEAN_MOTION_DOT":4.405e-5,"MEAN_MOTION_DDOT":0}]
